{
    "links": {
        "self": "http://www.neowsapp.com/rest/v1/neo/3720880?api_key=iIulBulltgU6a56xZRHN4H3l9WmuAYTsLGpBGhQ2"
    },
    "id": "3720880",
    "neo_reference_id": "3720880",
    "name": "(2015 JF11)",
    "designation": "2015 JF11",
    "nasa_jpl_url": "http://ssd.jpl.nasa.gov/sbdb.cgi?sstr=3720880",
    "absolute_magnitude_h": 20.8,
    "estimated_diameter": {
        "kilometers": {
            "estimated_diameter_min": 0.1838886721,
            "estimated_diameter_max": 0.411187571
        },
        "meters": {
            "estimated_diameter_min": 183.8886720703,
            "estimated_diameter_max": 411.1875710413
        },
        "miles": {
            "estimated_diameter_min": 0.1142630881,
            "estimated_diameter_max": 0.2555000322
        },
        "feet": {
            "estimated_diameter_min": 603.309310875,
            "estimated_diameter_max": 1349.040630575
        }
    },
    "is_potentially_hazardous_asteroid": false,
    "close_approach_data": [
        {
            "close_approach_date": "2015-02-02",
            "close_approach_date_full": "2015-Feb-02 22:44",
            "epoch_date_close_approach": 1422917040000,
            "relative_velocity": {
                "kilometers_per_second": "7.2347182522",
                "kilometers_per_hour": "26044.9857079978",
                "miles_per_hour": "16183.3412583945"
            },
            "miss_distance": {
                "astronomical": "0.158066478",
                "lunar": "61.487859942",
                "kilometers": "23646408.42720186",
                "miles": "14693196.864071268"
            },
            "orbiting_body": "Earth"
        },
        {
            "close_approach_date": "2015-08-06",
            "close_approach_date_full": "2015-Aug-06 20:45",
            "epoch_date_close_approach": 1438893900000,
            "relative_velocity": {
                "kilometers_per_second": "5.9580892681",
                "kilometers_per_hour": "21449.1213653345",
                "miles_per_hour": "13327.6498839213"
            },
            "miss_distance": {
                "astronomical": "0.1523672619",
                "lunar": "59.2708648791",
                "kilometers": "22793817.837972153",
                "miles": "14163421.6379275914"
            },
            "orbiting_body": "Earth"
        }
    ],
    "orbital_data": {
        "orbit_id": "5",
        "orbit_determination_date": "2017-04-06 08:33:44",
        "first_observation_date": "2015-05-13",
        "last_observation_date": "2015-06-05",
        "data_arc_in_days": 23,
        "observations_used": 10,
        "orbit_uncertainty": "9",
        "minimum_orbit_intersection": ".114265",
        "jupiter_tisserand_invariant": "6.078",
        "epoch_osculation": "2457172.5",
        "eccentricity": ".1666870224210227",
        "semi_major_axis": ".9954689426020844",
        "inclination": "9.316947779497267",
        "ascending_node_longitude": "325.154597320678",
        "orbital_period": "362.7772125840632",
        "perihelion_distance": ".829537188647139",
        "perihelion_argument": "158.9632627297109",
        "aphelion_distance": "1.16140069655703",
        "perihelion_time": "2457048.651997206367",
        "mean_anomaly": "122.8998940923736",
        "mean_motion": ".9923445781936491",
        "equinox": "J2000",
        "orbit_class": {
            "orbit_class_type": "ATE",
            "orbit_class_description": "Near-Earth asteroid orbits similar to that of 2062 Aten",
            "orbit_class_range": "a (semi-major axis) < 1.0 AU; q (perihelion) > 0.983 AU"
        }
    },
    "is_sentry_object": false
}